OBJECT_NAME,OBJECT_ID,EPOCH,MEAN_MOTION,ECCENTRICITY,INCLINATION,RA_OF_ASC_NODE,ARG_OF_PERICENTER,MEAN_ANOMALY,EPHEMERIS_TYPE,CLASSIFICATION_TYPE,NORAD_CAT_ID,ELEMENT_SET_NO,REV_AT_EPOCH,BSTAR,MEAN_MOTION_DOT,MEAN_MOTION_DDOT
M2 PATHFINDER,2020-037E,2026-07-13T12:19:06.894336,15.04788602,.00130535,97.8145,26.0427,67.6872,292.5736,0,U,45727,999,32945,.61445038E-4,.804E-5,0
NETSAT-4,2020-068U,2026-07-13T19:41:48.987168,15.44726306,.0004576,97.8600,205.2188,198.4537,161.6545,0,U,46504,999,31988,.23788E-3,.11018E-3,0
NETSAT-3,2020-068V,2026-07-13T14:06:23.137056,15.43571140,.0003581,97.8647,203.1515,217.9354,142.1641,0,U,46505,999,31975,.24164E-3,.10762E-3,0
NETSAT-1,2020-068W,2026-07-13T12:54:17.980704,15.35221100,.0002409,97.8748,197.1116,273.0767,87.0199,0,U,46506,999,31934,.21028E-3,.7101E-4,0
NETSAT-2,2020-068X,2026-07-13T11:57:35.897760,15.47113865,.00019146,97.8610,204.8657,216.6397,143.4721,0,U,46507,999,31980,.29073472E-3,.14643E-3,0
GREENCUBE (IO-117),2022-080E,2026-07-12T17:00:29.177856,6.42583319,.00090302,70.1415,289.3709,284.1311,75.8345,0,U,53109,999,9370,0,-.3E-7,0
SITRO-AIS 5 (KATYS),2023-091L,2026-07-13T19:45:41.910336,15.30045864,.0010808,97.5052,258.9847,17.2821,342.8785,0,U,57176,999,16841,.23761E-3,.6843E-4,0
SITRO-AIS 6 (CHIRKIN),2023-091AC,2026-07-13T20:45:07.333344,15.26422467,.001133,97.5059,258.0019,21.2620,338.9086,0,U,57192,999,16835,.23118E-3,.5955E-4,0
SITRO-AIS 8 (ANOKHIN),2023-091AD,2026-07-13T19:01:48.440928,15.32833824,.0009663,97.5049,260.6531,13.3020,346.8474,0,U,57193,999,16852,.27961E-3,.8799E-4,0
SITRO-AIS 7 (FARTUSHNIY),2023-091AE,2026-07-13T20:57:39.853152,15.26097165,.0011288,97.5056,257.8216,22.3816,337.7912,0,U,57194,999,16834,.22185E-3,.5656E-4,0
SITRO-AIS 10 (BURDAEV),2023-091AK,2026-07-13T20:09:50.116032,15.39595217,.0004991,97.5075,266.0362,347.0079,13.1037,0,U,57199,999,16886,.30681E-3,.12003E-3,0
SITRO-AIS 9 (SHCHUKIN),2023-091AM,2026-07-13T21:00:21.453120,15.39081947,.000524,97.5073,265.7807,347.2853,12.8259,0,U,57201,999,16885,.3209E-3,.12349E-3,0
SITRO-AIS 12 (SMIRENNIY),2023-091AQ,2026-07-13T19:05:55.677120,15.39375867,.00048,97.5086,266.1833,340.2942,19.8117,0,U,57204,999,16886,.31232E-3,.12132E-3,0
SITRO-AIS 11 (SHEFFER),2023-091AU,2026-07-13T20:48:01.933056,15.39820079,.0004693,97.5084,266.5196,339.3831,20.7224,0,U,57208,999,16889,.32035E-3,.1263E-3,0
SITRO-AIS 25,2024-039R,2026-07-13T20:09:25.677792,14.93637733,.0142678,95.3893,253.4077,234.3107,124.4771,0,U,59066,999,12870,.14666E-3,.1856E-4,0
SITRO-AIS 26,2024-039S,2026-07-13T20:16:41.499264,14.93429789,.0143021,95.3894,253.3033,234.9141,123.8605,0,U,59067,999,12869,.14602E-3,.1839E-4,0
SITRO-AIS 27,2024-039T,2026-07-13T19:23:01.334976,14.93854214,.0142065,95.3899,253.5618,233.5765,125.2294,0,U,59068,999,12871,.106E-3,.1337E-4,0
SITRO-AIS 28,2024-039U,2026-07-13T20:26:08.760192,14.93888357,.0141987,95.3896,253.6407,233.2550,125.5570,0,U,59071,999,12872,.15019E-3,.1912E-4,0
GRBBETA,2024-128C,2026-07-13T05:38:25.454976,15.06800912,.0037305,61.9896,124.8657,140.2081,220.1759,0,U,60237,999,11019,.14278E-3,.1948E-4,0
OOV-CUBE (TUBSAT-30),2024-128F,2026-07-13T09:41:52.285632,15.02869569,.00413557,61.9937,134.1487,139.6220,220.7954,0,U,60240,999,11005,.94341179E-4,.1077E-4,0
ROBUSTA-3A (MEDITERRANEE),2024-128J,2026-07-13T20:32:20.916096,15.11975624,.0038215,61.9865,113.9138,133.6608,226.7666,0,U,60243,999,11045,.26838E-3,.448E-4,0
LASARSAT,2024-247Q,2026-07-12T23:54:51.800832,15.47948222,.00069769,44.9747,117.0092,149.4103,210.7196,0,U,62391,999,8731,.53150637E-3,.28123E-3,0
CROCUBE,2024-247T,2026-07-12T19:57:59.440608,15.50071349,.0007253,44.9714,114.8252,157.3362,202.7851,0,U,62394,999,8732,.49241857E-3,.28068E-3,0
FORESAIL-1 PRIME,2025-276DS,2026-07-13T17:52:41.273760,15.18930913,.0003028,97.4194,267.5317,48.2712,311.8781,0,U,66778,999,3443,.13534E-3,.2759E-4,0
KNACKSAT-2,1998-067XZ,2026-07-13T06:37:11.095104,15.62269029,.0008057,51.6258,163.0209,321.9354,38.1070,0,U,67683,999,2435,.4098E-3,.36553E-3,0
