M2 PATHFINDER           
1 45727U 20037E   26194.51327424  .00000804  00000+0  61445-4 0  9992
2 45727  97.8145  26.0427 0013053  67.6872 292.5736 15.04788602329458
NETSAT-4                
1 46504U 20068U   26194.82070587  .00011018  00000+0  23788-3 0  9995
2 46504  97.8600 205.2188 0004576 198.4537 161.6545 15.44726306319881
NETSAT-3                
1 46505U 20068V   26194.58776779  .00010762  00000+0  24164-3 0  9999
2 46505  97.8647 203.1515 0003581 217.9354 142.1641 15.43571140319753
NETSAT-1                
1 46506U 20068W   26194.53770811  .00007101  00000+0  21028-3 0  9995
2 46506  97.8748 197.1116 0002409 273.0767  87.0199 15.35221100319343
NETSAT-2                
1 46507U 20068X   26194.49833215  .00014643  00000+0  29073-3 0  9996
2 46507  97.8610 204.8657 0001914 216.6397 143.4721 15.47113865319800
GREENCUBE (IO-117)      
1 53109U 22080E   26193.70867104 -.00000003  00000+0  00000+0 0  9996
2 53109  70.1415 289.3709 0009030 284.1311  75.8345  6.42583319 93700
SITRO-AIS 5 (KATYS)     
1 57176U 23091L   26194.82340174  .00006843  00000+0  23761-3 0  9994
2 57176  97.5052 258.9847 0010808  17.2821 342.8785 15.30045864168410
SITRO-AIS 6 (CHIRKIN)   
1 57192U 23091AC  26194.86466821  .00005955  00000+0  23118-3 0  9993
2 57192  97.5059 258.0019 0011330  21.2620 338.9086 15.26422467168356
SITRO-AIS 8 (ANOKHIN)   
1 57193U 23091AD  26194.79292177  .00008799  00000+0  27961-3 0  9996
2 57193  97.5049 260.6531 0009663  13.3020 346.8474 15.32833824168524
SITRO-AIS 7 (FARTUSHNIY)
1 57194U 23091AE  26194.87337793  .00005656  00000+0  22185-3 0  9992
2 57194  97.5056 257.8216 0011288  22.3816 337.7912 15.26097165168349
SITRO-AIS 10 (BURDAEV)  
1 57199U 23091AK  26194.84016338  .00012003  00000+0  30681-3 0  9997
2 57199  97.5075 266.0362 0004991 347.0079  13.1037 15.39595217168865
SITRO-AIS 9 (SHCHUKIN)  
1 57201U 23091AM  26194.87524830  .00012349  00000+0  32090-3 0  9994
2 57201  97.5073 265.7807 0005240 347.2853  12.8259 15.39081947168858
SITRO-AIS 12 (SMIRENNIY)
1 57204U 23091AQ  26194.79578330  .00012132  00000+0  31232-3 0  9999
2 57204  97.5086 266.1833 0004800 340.2942  19.8117 15.39375867168860
SITRO-AIS 11 (SHEFFER)  
1 57208U 23091AU  26194.86668904  .00012630  00000+0  32035-3 0  9993
2 57208  97.5084 266.5196 0004693 339.3831  20.7224 15.39820079168897
SITRO-AIS 25            
1 59066U 24039R   26194.83988053  .00001856  00000+0  14666-3 0  9995
2 59066  95.3893 253.4077 0142678 234.3107 124.4771 14.93637733128701
SITRO-AIS 26            
1 59067U 24039S   26194.84492476  .00001839  00000+0  14602-3 0  9997
2 59067  95.3894 253.3033 0143021 234.9141 123.8605 14.93429789128698
SITRO-AIS 27            
1 59068U 24039T   26194.80765434  .00001337  00000+0  10600-3 0  9998
2 59068  95.3899 253.5618 0142065 233.5765 125.2294 14.93854214128717
SITRO-AIS 28            
1 59071U 24039U   26194.85149028  .00001912  00000+0  15019-3 0  9990
2 59071  95.3896 253.6407 0141987 233.2550 125.5570 14.93888357128722
GRBBETA                 
1 60237U 24128C   26194.23501684  .00001948  00000+0  14278-3 0  9992
2 60237  61.9896 124.8657 0037305 140.2081 220.1759 15.06800912110196
OOV-CUBE (TUBSAT-30)    
1 60240U 24128F   26194.40407738  .00001077  00000+0  94341-4 0  9993
2 60240  61.9937 134.1487 0041355 139.6220 220.7954 15.02869569110055
ROBUSTA-3A (MEDITERRAN*)
1 60243U 24128J   26194.85579764  .00004480  00000+0  26838-3 0  9990
2 60243  61.9865 113.9138 0038215 133.6608 226.7666 15.11975624110451
LASARSAT                
1 62391U 24247Q   26193.99643288  .00028123  00000+0  53151-3 0  9993
2 62391  44.9747 117.0092 0006976 149.4103 210.7196 15.47948222 87317
CROCUBE                 
1 62394U 24247T   26193.83193797  .00028068  00000+0  49242-3 0  9998
2 62394  44.9714 114.8252 0007253 157.3362 202.7851 15.50071349 87322
FORESAIL-1 PRIME        
1 66778U 25276DS  26194.74492215  .00002759  00000+0  13534-3 0  9993
2 66778  97.4194 267.5317 0003028  48.2712 311.8781 15.18930913 34431
KNACKSAT-2              
1 67683U 98067XZ  26194.27582286  .00036553  00000+0  40980-3 0  9997
2 67683  51.6258 163.0209 0008057 321.9354  38.1070 15.62269029 24352
